{
  "type": "FeatureCollection",
  "features": [
    {
      "type": "Feature",
      "properties": {
        "norad_id": 66524,
        "name": "STARLINK-35687",
        "group": "last-30-days",
        "lat": -42.50755421447874,
        "lon": -20.468854760449716,
        "alt_km": 431.11552382258014,
        "timestamp": "2025-12-11T20:41:13.846857+00:00",
        "meta_object_name": "STARLINK-35687",
        "meta_object_id": "2025-265J",
        "meta_epoch": "2025-12-11T14:00:01.999872",
        "meta_mean_motion": 15.47124251,
        "meta_eccentricity": 0.00011488,
        "meta_inclination": 43.0003,
        "meta_ra_of_asc_node": 60.7587,
        "meta_arg_of_pericenter": 278.334,
        "meta_mean_anomaly": 246.3386,
        "meta_ephemeris_type": 0,
        "meta_classification_type": "U",
        "meta_norad_cat_id": 66524,
        "meta_element_set_no": 999,
        "meta_rev_at_epoch": 480,
        "meta_bstar": -0.04401692,
        "meta_mean_motion_dot": -0.02036046,
        "meta_mean_motion_ddot": 0,
        "tle_line1": "1 66524U 25265J   25345.58335648 -.02036046  00000+0 -44017-1 0  9993",
        "tle_line2": "2 66524  43.0003  60.7587 0001148 278.3340 246.3386 15.47124251  4805"
      },
      "geometry": {
        "type": "Point",
        "coordinates": [
          -20.468854760449716,
          -42.50755421447874
        ]
      }
    },
    {
      "type": "Feature",
      "properties": {
        "norad_id": 66525,
        "name": "STARLINK-35975",
        "group": "last-30-days",
        "lat": -40.336621895858904,
        "lon": -6.567278985827435,
        "alt_km": 417.41461585090656,
        "timestamp": "2025-12-11T20:41:13.846869+00:00",
        "meta_object_name": "STARLINK-35975",
        "meta_object_id": "2025-265K",
        "meta_epoch": "2025-12-11T14:00:01.999872",
        "meta_mean_motion": 15.50487433,
        "meta_eccentricity": 0.00018886,
        "meta_inclination": 43.0002,
        "meta_ra_of_asc_node": 60.7424,
        "meta_arg_of_pericenter": 294.2704,
        "meta_mean_anomaly": 237.0875,
        "meta_ephemeris_type": 0,
        "meta_classification_type": "U",
        "meta_norad_cat_id": 66525,
        "meta_element_set_no": 999,
        "meta_rev_at_epoch": 480,
        "meta_bstar": -0.001408517,
        "meta_mean_motion_dot": -0.00081851,
        "meta_mean_motion_ddot": 0,
        "tle_line1": "1 66525U 25265K   25345.58335648 -.00081851  00000+0 -14085-2 0  9999",
        "tle_line2": "2 66525  43.0002  60.7424 0001888 294.2704 237.0875 15.50487433  4805"
      },
      "geometry": {
        "type": "Point",
        "coordinates": [
          -6.567278985827435,
          -40.336621895858904
        ]
      }
    },
    {
      "type": "Feature",
      "properties": {
        "norad_id": 66526,
        "name": "STARLINK-35932",
        "group": "last-30-days",
        "lat": -39.741310808279955,
        "lon": -4.047222512419188,
        "alt_km": 417.4581882568409,
        "timestamp": "2025-12-11T20:41:13.846880+00:00",
        "meta_object_name": "STARLINK-35932",
        "meta_object_id": "2025-265L",
        "meta_epoch": "2025-12-11T14:00:01.999872",
        "meta_mean_motion": 15.50601013,
        "meta_eccentricity": 0.00014738,
        "meta_inclination": 43.0002,
        "meta_ra_of_asc_node": 60.7384,
        "meta_arg_of_pericenter": 268.6836,
        "meta_mean_anomaly": 264.5898,
        "meta_ephemeris_type": 0,
        "meta_classification_type": "U",
        "meta_norad_cat_id": 66526,
        "meta_element_set_no": 999,
        "meta_rev_at_epoch": 469,
        "meta_bstar": -0.0022165217,
        "meta_mean_motion_dot": -0.00128366,
        "meta_mean_motion_ddot": 0,
        "tle_line1": "1 66526U 25265L   25345.58335648 -.00128366  00000+0 -22165-2 0  9991",
        "tle_line2": "2 66526  43.0002  60.7384 0001473 268.6836 264.5898 15.50601013  4691"
      },
      "geometry": {
        "type": "Point",
        "coordinates": [
          -4.047222512419188,
          -39.741310808279955
        ]
      }
    },
    {
      "type": "Feature",
      "properties": {
        "norad_id": 66527,
        "name": "STARLINK-35935",
        "group": "last-30-days",
        "lat": -39.127123287825235,
        "lon": -1.6994466209587669,
        "alt_km": 417.5761956700653,
        "timestamp": "2025-12-11T20:41:13.846892+00:00",
        "meta_object_name": "STARLINK-35935",
        "meta_object_id": "2025-265M",
        "meta_epoch": "2025-12-11T14:00:01.999872",
        "meta_mean_motion": 15.50617838,
        "meta_eccentricity": 0.00012821,
        "meta_inclination": 43.0003,
        "meta_ra_of_asc_node": 60.7337,
        "meta_arg_of_pericenter": 266.3721,
        "meta_mean_anomaly": 268.8137,
        "meta_ephemeris_type": 0,
        "meta_classification_type": "U",
        "meta_norad_cat_id": 66527,
        "meta_element_set_no": 999,
        "meta_rev_at_epoch": 480,
        "meta_bstar": -0.0027587204,
        "meta_mean_motion_dot": -0.00159154,
        "meta_mean_motion_ddot": 0,
        "tle_line1": "1 66527U 25265M   25345.58335648 -.00159154  00000+0 -27587-2 0  9994",
        "tle_line2": "2 66527  43.0003  60.7337 0001282 266.3721 268.8137 15.50617838  4805"
      },
      "geometry": {
        "type": "Point",
        "coordinates": [
          -1.6994466209587669,
          -39.127123287825235
        ]
      }
    },
    {
      "type": "Feature",
      "properties": {
        "norad_id": 66528,
        "name": "STARLINK-35928",
        "group": "last-30-days",
        "lat": -38.475271364203294,
        "lon": 0.5777192641631179,
        "alt_km": 417.18150245703964,
        "timestamp": "2025-12-11T20:41:13.846904+00:00",
        "meta_object_name": "STARLINK-35928",
        "meta_object_id": "2025-265N",
        "meta_epoch": "2025-12-11T14:00:01.999872",
        "meta_mean_motion": 15.50582499,
        "meta_eccentricity": 0.0001714,
        "meta_inclination": 43.0006,
        "meta_ra_of_asc_node": 60.7293,
        "meta_arg_of_pericenter": 281.4935,
        "meta_mean_anomaly": 255.605,
        "meta_ephemeris_type": 0,
        "meta_classification_type": "U",
        "meta_norad_cat_id": 66528,
        "meta_element_set_no": 999,
        "meta_rev_at_epoch": 480,
        "meta_bstar": -0.0014326368,
        "meta_mean_motion_dot": -0.00083509,
        "meta_mean_motion_ddot": 0,
        "tle_line1": "1 66528U 25265N   25345.58335648 -.00083509  00000+0 -14326-2 0  9992",
        "tle_line2": "2 66528  43.0006  60.7293 0001714 281.4935 255.6050 15.50582499  4807"
      },
      "geometry": {
        "type": "Point",
        "coordinates": [
          0.5777192641631179,
          -38.475271364203294
        ]
      }
    },
    {
      "type": "Feature",
      "properties": {
        "norad_id": 66529,
        "name": "STARLINK-35933",
        "group": "last-30-days",
        "lat": -40.2743263852082,
        "lon": -6.290809890183416,
        "alt_km": 430.0980659105935,
        "timestamp": "2025-12-11T20:41:13.846915+00:00",
        "meta_object_name": "STARLINK-35933",
        "meta_object_id": "2025-265P",
        "meta_epoch": "2025-12-11T14:00:01.999872",
        "meta_mean_motion": 15.47494421,
        "meta_eccentricity": 9.593e-05,
        "meta_inclination": 43.0001,
        "meta_ra_of_asc_node": 60.7325,
        "meta_arg_of_pericenter": 283.1839,
        "meta_mean_anomaly": 252.0164,
        "meta_ephemeris_type": 0,
        "meta_classification_type": "U",
        "meta_norad_cat_id": 66529,
        "meta_element_set_no": 999,
        "meta_rev_at_epoch": 480,
        "meta_bstar": -0.043922341,
        "meta_mean_motion_dot": -0.02055681,
        "meta_mean_motion_ddot": 0,
        "tle_line1": "1 66529U 25265P   25345.58335648 -.02055681  00000+0 -43922-1 0  9998",
        "tle_line2": "2 66529  43.0001  60.7325 0000959 283.1839 252.0164 15.47494421  4801"
      },
      "geometry": {
        "type": "Point",
        "coordinates": [
          -6.290809890183416,
          -40.2743263852082
        ]
      }
    },
    {
      "type": "Feature",
      "properties": {
        "norad_id": 66530,
        "name": "STARLINK-35961",
        "group": "last-30-days",
        "lat": -37.35266080757873,
        "lon": 4.099976266109173,
        "alt_km": 421.2077023086913,
        "timestamp": "2025-12-11T20:41:13.846925+00:00",
        "meta_object_name": "STARLINK-35961",
        "meta_object_id": "2025-265Q",
        "meta_epoch": "2025-12-11T14:00:01.999872",
        "meta_mean_motion": 15.50403589,
        "meta_eccentricity": 0.00013744,
        "meta_inclination": 43.0003,
        "meta_ra_of_asc_node": 60.7189,
        "meta_arg_of_pericenter": 284.5277,
        "meta_mean_anomaly": 256.3759,
        "meta_ephemeris_type": 0,
        "meta_classification_type": "U",
        "meta_norad_cat_id": 66530,
        "meta_element_set_no": 999,
        "meta_rev_at_epoch": 480,
        "meta_bstar": -0.040069684,
        "meta_mean_motion_dot": -0.02077145,
        "meta_mean_motion_ddot": 0,
        "tle_line1": "1 66530U 25265Q   25345.58335648 -.02077145  00000+0 -40070-1 0  9990",
        "tle_line2": "2 66530  43.0003  60.7189 0001374 284.5277 256.3759 15.50403589  4802"
      },
      "geometry": {
        "type": "Point",
        "coordinates": [
          4.099976266109173,
          -37.35266080757873
        ]
      }
    }
  ]
}